CCSDS_OMM_VERS = 2.0
CREATION_DATE  = 
ORIGINATOR     = 

OBJECT_NAME    = COSMOS 1933
OBJECT_ID      = 1988-020A
CENTER_NAME    = EARTH
REF_FRAME      = TEME
TIME_SYSTEM    = UTC
MEAN_ELEMENT_THEORY = SGP/SGP4

EPOCH          = 2026-01-08T07:56:59.529984
MEAN_MOTION    = 15.17394666
ECCENTRICITY   = .00061778
INCLINATION    = 82.5147
RA_OF_ASC_NODE = 310.6018
ARG_OF_PERICENTER = 61.3512
MEAN_ANOMALY   = 298.8342

EPHEMERIS_TYPE = 0
CLASSIFICATION_TYPE = U
NORAD_CAT_ID   = 18958
ELEMENT_SET_NO = 999
REV_AT_EPOCH   = 4107
BSTAR          = .23872144E-3
MEAN_MOTION_DOT = .4801E-4
MEAN_MOTION_DDOT = 0

CCSDS_OMM_VERS = 2.0
CREATION_DATE  = 
ORIGINATOR     = 

OBJECT_NAME    = SL-3 R/B
OBJECT_ID      = 1988-032B
CENTER_NAME    = EARTH
REF_FRAME      = TEME
TIME_SYSTEM    = UTC
MEAN_ELEMENT_THEORY = SGP/SGP4

EPOCH          = 2026-01-09T03:15:11.367072
MEAN_MOTION    = 15.19082512
ECCENTRICITY   = .0028456
INCLINATION    = 97.5113
RA_OF_ASC_NODE = 352.6759
ARG_OF_PERICENTER = 82.1984
MEAN_ANOMALY   = 278.2479

EPHEMERIS_TYPE = 0
CLASSIFICATION_TYPE = U
NORAD_CAT_ID   = 19046
ELEMENT_SET_NO = 999
REV_AT_EPOCH   = 4306
BSTAR          = .23267E-3
MEAN_MOTION_DOT = .4862E-4
MEAN_MOTION_DDOT = 0

CCSDS_OMM_VERS = 2.0
CREATION_DATE  = 
ORIGINATOR     = 

OBJECT_NAME    = SL-16 R/B
OBJECT_ID      = 1988-039B
CENTER_NAME    = EARTH
REF_FRAME      = TEME
TIME_SYSTEM    = UTC
MEAN_ELEMENT_THEORY = SGP/SGP4

EPOCH          = 2026-01-08T14:14:46.639104
MEAN_MOTION    = 14.19604186
ECCENTRICITY   = .00196293
INCLINATION    = 71.0133
RA_OF_ASC_NODE = 195.6189
ARG_OF_PERICENTER = 70.2330
MEAN_ANOMALY   = 290.0910

EPHEMERIS_TYPE = 0
CLASSIFICATION_TYPE = U
NORAD_CAT_ID   = 19120
ELEMENT_SET_NO = 999
REV_AT_EPOCH   = 94985
BSTAR          = .30569567E-4
MEAN_MOTION_DOT = .17E-6
MEAN_MOTION_DDOT = 0

CCSDS_OMM_VERS = 2.0
CREATION_DATE  = 
ORIGINATOR     = 

OBJECT_NAME    = COSMOS 1953
OBJECT_ID      = 1988-050A
CENTER_NAME    = EARTH
REF_FRAME      = TEME
TIME_SYSTEM    = UTC
MEAN_ELEMENT_THEORY = SGP/SGP4

EPOCH          = 2026-01-06T20:47:26.642976
MEAN_MOTION    = 15.27279129
ECCENTRICITY   = .0011626
INCLINATION    = 82.5067
RA_OF_ASC_NODE = 220.3632
ARG_OF_PERICENTER = 349.1631
MEAN_ANOMALY   = 10.9355

EPHEMERIS_TYPE = 0
CLASSIFICATION_TYPE = U
NORAD_CAT_ID   = 19210
ELEMENT_SET_NO = 999
REV_AT_EPOCH   = 2834
BSTAR          = .25443E-3
MEAN_MOTION_DOT = .6843E-4
MEAN_MOTION_DDOT = 0

CCSDS_OMM_VERS = 2.0
CREATION_DATE  = 
ORIGINATOR     = 

OBJECT_NAME    = SL-8 R/B
OBJECT_ID      = 1988-053B
CENTER_NAME    = EARTH
REF_FRAME      = TEME
TIME_SYSTEM    = UTC
MEAN_ELEMENT_THEORY = SGP/SGP4

EPOCH          = 2026-01-08T15:42:59.051232
MEAN_MOTION    = 14.38878829
ECCENTRICITY   = .00191417
INCLINATION    = 74.0457
RA_OF_ASC_NODE = 223.1149
ARG_OF_PERICENTER = 57.1743
MEAN_ANOMALY   = 359.1879

EPHEMERIS_TYPE = 0
CLASSIFICATION_TYPE = U
NORAD_CAT_ID   = 19257
ELEMENT_SET_NO = 999
REV_AT_EPOCH   = 96796
BSTAR          = .92859965E-4
MEAN_MOTION_DOT = .26E-5
MEAN_MOTION_DDOT = 0

CCSDS_OMM_VERS = 2.0
CREATION_DATE  = 
ORIGINATOR     = 

OBJECT_NAME    = COSMOS 1975
OBJECT_ID      = 1988-093A
CENTER_NAME    = EARTH
REF_FRAME      = TEME
TIME_SYSTEM    = UTC
MEAN_ELEMENT_THEORY = SGP/SGP4

EPOCH          = 2026-01-08T23:33:12.182400
MEAN_MOTION    = 15.26933191
ECCENTRICITY   = .0012199
INCLINATION    = 82.5203
RA_OF_ASC_NODE = 177.5479
ARG_OF_PERICENTER = 25.8626
MEAN_ANOMALY   = 334.3220

EPHEMERIS_TYPE = 0
CLASSIFICATION_TYPE = U
NORAD_CAT_ID   = 19573
ELEMENT_SET_NO = 999
REV_AT_EPOCH   = 1029
BSTAR          = .25249E-3
MEAN_MOTION_DOT = .6722E-4
MEAN_MOTION_DDOT = 0

CCSDS_OMM_VERS = 2.0
CREATION_DATE  = 
ORIGINATOR     = 

OBJECT_NAME    = SL-14 R/B
OBJECT_ID      = 1988-093B
CENTER_NAME    = EARTH
REF_FRAME      = TEME
TIME_SYSTEM    = UTC
MEAN_ELEMENT_THEORY = SGP/SGP4

EPOCH          = 2026-01-08T17:28:10.274880
MEAN_MOTION    = 14.85586408
ECCENTRICITY   = .0019505
INCLINATION    = 82.5316
RA_OF_ASC_NODE = 98.3418
ARG_OF_PERICENTER = 234.0587
MEAN_ANOMALY   = 242.3575

EPHEMERIS_TYPE = 0
CLASSIFICATION_TYPE = U
NORAD_CAT_ID   = 19574
ELEMENT_SET_NO = 999
REV_AT_EPOCH   = 99213
BSTAR          = .73387E-4
MEAN_MOTION_DOT = .661E-5
MEAN_MOTION_DDOT = 0

CCSDS_OMM_VERS = 2.0
CREATION_DATE  = 
ORIGINATOR     = 

OBJECT_NAME    = SL-16 R/B
OBJECT_ID      = 1988-102B
CENTER_NAME    = EARTH
REF_FRAME      = TEME
TIME_SYSTEM    = UTC
MEAN_ELEMENT_THEORY = SGP/SGP4

EPOCH          = 2026-01-09T03:32:32.171712
MEAN_MOTION    = 14.16141431
ECCENTRICITY   = .0011962
INCLINATION    = 70.9996
RA_OF_ASC_NODE = 276.7761
ARG_OF_PERICENTER = 104.0112
MEAN_ANOMALY   = 256.2342

EPHEMERIS_TYPE = 0
CLASSIFICATION_TYPE = U
NORAD_CAT_ID   = 19650
ELEMENT_SET_NO = 999
REV_AT_EPOCH   = 91846
BSTAR          = .25591E-4
MEAN_MOTION_DOT = .3E-7
MEAN_MOTION_DDOT = 0

CCSDS_OMM_VERS = 2.0
CREATION_DATE  = 
ORIGINATOR     = 

OBJECT_NAME    = INTERCOSMOS 24
OBJECT_ID      = 1989-080A
CENTER_NAME    = EARTH
REF_FRAME      = TEME
TIME_SYSTEM    = UTC
MEAN_ELEMENT_THEORY = SGP/SGP4

EPOCH          = 2026-01-08T10:28:33.086784
MEAN_MOTION    = 12.59481943
ECCENTRICITY   = .11889777
INCLINATION    = 82.6073
RA_OF_ASC_NODE = 143.5989
ARG_OF_PERICENTER = 72.6194
MEAN_ANOMALY   = 300.1217

EPHEMERIS_TYPE = 0
CLASSIFICATION_TYPE = U
NORAD_CAT_ID   = 20261
ELEMENT_SET_NO = 999
REV_AT_EPOCH   = 65921
BSTAR          = .15254642E-3
MEAN_MOTION_DOT = .549E-5
MEAN_MOTION_DDOT = 0

CCSDS_OMM_VERS = 2.0
CREATION_DATE  = 
ORIGINATOR     = 

OBJECT_NAME    = SL-14 R/B
OBJECT_ID      = 1989-080C
CENTER_NAME    = EARTH
REF_FRAME      = TEME
TIME_SYSTEM    = UTC
MEAN_ELEMENT_THEORY = SGP/SGP4

EPOCH          = 2026-01-08T15:01:18.528960
MEAN_MOTION    = 12.50435739
ECCENTRICITY   = .1229979
INCLINATION    = 82.5909
RA_OF_ASC_NODE = 211.7570
ARG_OF_PERICENTER = 322.1393
MEAN_ANOMALY   = 29.9038

EPHEMERIS_TYPE = 0
CLASSIFICATION_TYPE = U
NORAD_CAT_ID   = 20262
ELEMENT_SET_NO = 999
REV_AT_EPOCH   = 65264
BSTAR          = .96117767E-4
MEAN_MOTION_DOT = .322E-5
MEAN_MOTION_DDOT = 0

CCSDS_OMM_VERS = 2.0
CREATION_DATE  = 
ORIGINATOR     = 

OBJECT_NAME    = DELTA 1 R/B
OBJECT_ID      = 1989-089B
CENTER_NAME    = EARTH
REF_FRAME      = TEME
TIME_SYSTEM    = UTC
MEAN_ELEMENT_THEORY = SGP/SGP4

EPOCH          = 2026-01-09T03:53:46.061088
MEAN_MOTION    = 14.50601052
ECCENTRICITY   = .0067983
INCLINATION    = 97.0736
RA_OF_ASC_NODE = 226.0524
ARG_OF_PERICENTER = 311.6843
MEAN_ANOMALY   = 47.8549

EPHEMERIS_TYPE = 0
CLASSIFICATION_TYPE = U
NORAD_CAT_ID   = 20323
ELEMENT_SET_NO = 999
REV_AT_EPOCH   = 88710
BSTAR          = .10623E-3
MEAN_MOTION_DOT = .393E-5
MEAN_MOTION_DDOT = 0

CCSDS_OMM_VERS = 2.0
CREATION_DATE  = 
ORIGINATOR     = 

OBJECT_NAME    = ARIANE 40 R/B
OBJECT_ID      = 1990-005H
CENTER_NAME    = EARTH
REF_FRAME      = TEME
TIME_SYSTEM    = UTC
MEAN_ELEMENT_THEORY = SGP/SGP4

EPOCH          = 2026-01-09T04:32:37.228992
MEAN_MOTION    = 14.39822741
ECCENTRICITY   = .0010517
INCLINATION    = 98.3201
RA_OF_ASC_NODE = 71.5864
ARG_OF_PERICENTER = 30.1793
MEAN_ANOMALY   = 330.0000

EPHEMERIS_TYPE = 0
CLASSIFICATION_TYPE = U
NORAD_CAT_ID   = 20443
ELEMENT_SET_NO = 999
REV_AT_EPOCH   = 88424
BSTAR          = .10126E-3
MEAN_MOTION_DOT = .276E-5
MEAN_MOTION_DDOT = 0

